{"type": "FeatureCollection", "features": [ {"type": "Feature", "properties": {"norad_id": 66859, "name": "STARLINK-35646", "group": "last-30-days", "lat": 42.83636973738287, "lon": 133.9485513442291, "alt_km": 391.7860976899956, "timestamp": "2025-12-24T16:52:40.179773+00:00", "meta": {"OBJECT_NAME": "STARLINK-35646", "OBJECT_ID": "2025-281M", "EPOCH": "2025-12-24T06:00:02.000160", "MEAN_MOTION": 15.58610601, "ECCENTRICITY": 0.00013316, "INCLINATION": 43.0001, "RA_OF_ASC_NODE": 52.3594, "ARG_OF_PERICENTER": 279.1742, "MEAN_ANOMALY": 142.2132, "EPHEMERIS_TYPE": 0, "CLASSIFICATION_TYPE": "U", "NORAD_CAT_ID": 66859, "ELEMENT_SET_NO": 999, "REV_AT_EPOCH": 324, "BSTAR": -0.029353009, "MEAN_MOTION_DOT": -0.02063859, "MEAN_MOTION_DDOT": 0}, "tle": {"line1": "1 66859U 25281M   25358.25002315 -.02063859  00000+0 -29353-1 0  9990", "line2": "2 66859  43.0001  52.3594 0001331 279.1742 142.2132 15.58610601  3249"}}, "geometry": {"type": "Point", "coordinates": [133.9485513442291, 42.83636973738287]}}, {"type": "Feature", "properties": {"norad_id": 66860, "name": "STARLINK-35987", "group": "last-30-days", "lat": 42.743408974491096, "lon": 147.01346177504644, "alt_km": 391.73022386359935, "timestamp": "2025-12-24T16:52:40.179783+00:00", "meta": {"OBJECT_NAME": "STARLINK-35987", "OBJECT_ID": "2025-281N", "EPOCH": "2025-12-24T06:00:02.000160", "MEAN_MOTION": 15.58603345, "ECCENTRICITY": 0.0001197, "INCLINATION": 43.0001, "RA_OF_ASC_NODE": 52.3363, "ARG_OF_PERICENTER": 281.0493, "MEAN_ANOMALY": 149.9245, "EPHEMERIS_TYPE": 0, "CLASSIFICATION_TYPE": "U", "NORAD_CAT_ID": 66860, "ELEMENT_SET_NO": 999, "REV_AT_EPOCH": 324, "BSTAR": -0.029176701, "MEAN_MOTION_DOT": -0.02013886, "MEAN_MOTION_DDOT": 0}, "tle": {"line1": "1 66860U 25281N   25358.25002315 -.02013886  00000+0 -29177-1 0  9991", "line2": "2 66860  43.0001  52.3363 0001197 281.0493 149.9245 15.58603345  3246"}}, "geometry": {"type": "Point", "coordinates": [147.01346177504644, 42.743408974491096]}}, {"type": "Feature", "properties": {"norad_id": 66861, "name": "STARLINK-35991", "group": "last-30-days", "lat": 42.978301764133434, "lon": 139.180551349195, "alt_km": 391.73741779423017, "timestamp": "2025-12-24T16:52:40.179793+00:00", "meta": {"OBJECT_NAME": "STARLINK-35991", "OBJECT_ID": "2025-281P", "EPOCH": "2025-12-24T06:00:02.000160", "MEAN_MOTION": 15.58600974, "ECCENTRICITY": 0.00013378, "INCLINATION": 42.9999, "RA_OF_ASC_NODE": 52.351, "ARG_OF_PERICENTER": 282.4142, "MEAN_ANOMALY": 142.8072, "EPHEMERIS_TYPE": 0, "CLASSIFICATION_TYPE": "U", "NORAD_CAT_ID": 66861, "ELEMENT_SET_NO": 999, "REV_AT_EPOCH": 324, "BSTAR": -0.029062448, "MEAN_MOTION_DOT": -0.02006933, "MEAN_MOTION_DDOT": 0}, "tle": {"line1": "1 66861U 25281P   25358.25002315 -.02006933  00000+0 -29062-1 0  9990", "line2": "2 66861  42.9999  52.3510 0001337 282.4142 142.8072 15.58600974  3242"}}, "geometry": {"type": "Point", "coordinates": [139.180551349195, 42.978301764133434]}}, {"type": "Feature", "properties": {"norad_id": 66862, "name": "STARLINK-35974", "group": "last-30-days", "lat": 42.93718119005553, "lon": 136.55568572244945, "alt_km": 391.6579282398134, "timestamp": "2025-12-24T16:52:40.179809+00:00", "meta": {"OBJECT_NAME": "STARLINK-35974", "OBJECT_ID": "2025-281Q", "EPOCH": "2025-12-24T06:00:02.000160", "MEAN_MOTION": 15.58611526, "ECCENTRICITY": 0.00011207, "INCLINATION": 43.0001, "RA_OF_ASC_NODE": 52.3546, "ARG_OF_PERICENTER": 277.0375, "MEAN_ANOMALY": 146.2668, "EPHEMERIS_TYPE": 0, "CLASSIFICATION_TYPE": "U", "NORAD_CAT_ID": 66862, "ELEMENT_SET_NO": 999, "REV_AT_EPOCH": 313, "BSTAR": -0.029401778, "MEAN_MOTION_DOT": -0.02066848, "MEAN_MOTION_DDOT": 0}, "tle": {"line1": "1 66862U 25281Q   25358.25002315 -.02066848  00000+0 -29402-1 0  9990", "line2": "2 66862  43.0001  52.3546 0001120 277.0375 146.2668 15.58611526  3138"}}, "geometry": {"type": "Point", "coordinates": [136.55568572244945, 42.93718119005553]}}, {"type": "Feature", "properties": {"norad_id": 66863, "name": "STARLINK-36134", "group": "last-30-days", "lat": 42.959690737063674, "lon": 141.79091899009242, "alt_km": 391.62802849244235, "timestamp": "2025-12-24T16:52:40.179820+00:00", "meta": {"OBJECT_NAME": "STARLINK-36134", "OBJECT_ID": "2025-281R", "EPOCH": "2025-12-24T06:00:02.000160", "MEAN_MOTION": 15.58613506, "ECCENTRICITY": 0.00010671, "INCLINATION": 42.9999, "RA_OF_ASC_NODE": 52.3454, "ARG_OF_PERICENTER": 280.5991, "MEAN_ANOMALY": 146.5393, "EPHEMERIS_TYPE": 0, "CLASSIFICATION_TYPE": "U", "NORAD_CAT_ID": 66863, "ELEMENT_SET_NO": 999, "REV_AT_EPOCH": 324, "BSTAR": -0.029481717, "MEAN_MOTION_DOT": -0.02071968, "MEAN_MOTION_DDOT": 0}, "tle": {"line1": "1 66863U 25281R   25358.25002315 -.02071968  00000+0 -29482-1 0  9998", "line2": "2 66863  42.9999  52.3454 0001067 280.5991 146.5393 15.58613506  3244"}}, "geometry": {"type": "Point", "coordinates": [141.79091899009242, 42.959690737063674]}}, {"type": "Feature", "properties": {"norad_id": 66864, "name": "STARLINK-36070", "group": "last-30-days", "lat": 42.881474931626634, "lon": 144.40735015027417, "alt_km": 391.82705471499503, "timestamp": "2025-12-24T16:52:40.179830+00:00", "meta": {"OBJECT_NAME": "STARLINK-36070", "OBJECT_ID": "2025-281S", "EPOCH": "2025-12-24T06:00:02.000160", "MEAN_MOTION": 15.5861189, "ECCENTRICITY": 0.00013559, "INCLINATION": 43.0002, "RA_OF_ASC_NODE": 52.34, "ARG_OF_PERICENTER": 282.7641, "MEAN_ANOMALY": 146.2915, "EPHEMERIS_TYPE": 0, "CLASSIFICATION_TYPE": "U", "NORAD_CAT_ID": 66864, "ELEMENT_SET_NO": 999, "REV_AT_EPOCH": 327, "BSTAR": -0.029421795, "MEAN_MOTION_DOT": -0.02068282, "MEAN_MOTION_DDOT": 0}, "tle": {"line1": "1 66864U 25281S   25358.25002315 -.02068282  00000+0 -29422-1 0  9998", "line2": "2 66864  43.0002  52.3400 0001355 282.7641 146.2915 15.58611890  3273"}}, "geometry": {"type": "Point", "coordinates": [144.40735015027417, 42.881474931626634]}}, {"type": "Feature", "properties": {"norad_id": 66865, "name": "STARLINK-36117", "group": "last-30-days", "lat": 42.54680643911772, "lon": 149.5971649309962, "alt_km": 391.6459443847325, "timestamp": "2025-12-24T16:52:40.179840+00:00", "meta": {"OBJECT_NAME": "STARLINK-36117", "OBJECT_ID": "2025-281T", "EPOCH": "2025-12-24T06:00:02.000160", "MEAN_MOTION": 15.58616274, "ECCENTRICITY": 9.69e-05, "INCLINATION": 42.9998, "RA_OF_ASC_NODE": 52.3313, "ARG_OF_PERICENTER": 276.4347, "MEAN_ANOMALY": 156.4522, "EPHEMERIS_TYPE": 0, "CLASSIFICATION_TYPE": "U", "NORAD_CAT_ID": 66865, "ELEMENT_SET_NO": 999, "REV_AT_EPOCH": 324, "BSTAR": -0.029517443, "MEAN_MOTION_DOT": -0.02074342, "MEAN_MOTION_DDOT": 0}, "tle": {"line1": "1 66865U 25281T   25358.25002315 -.02074342  00000+0 -29517-1 0  9998", "line2": "2 66865  42.9998  52.3313 0000969 276.4347 156.4522 15.58616274  3247"}}, "geometry": {"type": "Point", "coordinates": [149.5971649309962, 42.54680643911772]}}, {"type": "Feature", "properties": {"norad_id": 66866, "name": "STARLINK-36126", "group": "last-30-days", "lat": 42.29161548214151, "lon": 152.1728448120495, "alt_km": 391.75709806401755, "timestamp": "2025-12-24T16:52:40.179852+00:00", "meta": {"OBJECT_NAME": "STARLINK-36126", "OBJECT_ID": "2025-281U", "EPOCH": "2025-12-24T06:00:02.000160", "MEAN_MOTION": 15.58613079, "ECCENTRICITY": 0.00010841, "INCLINATION": 43, "RA_OF_ASC_NODE": 52.3258, "ARG_OF_PERICENTER": 282.3396, "MEAN_ANOMALY": 152.4662, "EPHEMERIS_TYPE": 0, "CLASSIFICATION_TYPE": "U", "NORAD_CAT_ID": 66866, "ELEMENT_SET_NO": 999, "REV_AT_EPOCH": 327, "BSTAR": -0.029450903, "MEAN_MOTION_DOT": -0.02070016, "MEAN_MOTION_DDOT": 0}, "tle": {"line1": "1 66866U 25281U   25358.25002315 -.02070016  00000+0 -29451-1 0  9990", "line2": "2 66866  43.0000  52.3258 0001084 282.3396 152.4662 15.58613079  3275"}}, "geometry": {"type": "Point", "coordinates": [152.1728448120495, 42.29161548214151]}}, {"type": "Feature", "properties": {"norad_id": 66867, "name": "STARLINK-36101", "group": "last-30-days", "lat": 41.97899203963592, "lon": 154.7252536714477, "alt_km": 391.89569371595644, "timestamp": "2025-12-24T16:52:40.179863+00:00", "meta": {"OBJECT_NAME": "STARLINK-36101", "OBJECT_ID": "2025-281V", "EPOCH": "2025-12-24T06:00:02.000160", "MEAN_MOTION": 15.58608879, "ECCENTRICITY": 0.00012393, "INCLINATION": 43, "RA_OF_ASC_NODE": 52.3213, "ARG_OF_PERICENTER": 284.1258, "MEAN_ANOMALY": 152.5975, "EPHEMERIS_TYPE": 0, "CLASSIFICATION_TYPE": "U", "NORAD_CAT_ID": 66867, "ELEMENT_SET_NO": 999, "REV_AT_EPOCH": 307, "BSTAR": -0.029309414, "MEAN_MOTION_DOT": -0.02060941, "MEAN_MOTION_DDOT": 0}, "tle": {"line1": "1 66867U 25281V   25358.25002315 -.02060941  00000+0 -29309-1 0  9999", "line2": "2 66867  43.0000  52.3213 0001239 284.1258 152.5975 15.58608879  3074"}}, "geometry": {"type": "Point", "coordinates": [154.7252536714477, 41.97899203963592]}}, {"type": "Feature", "properties": {"norad_id": 66868, "name": "STARLINK-36108", "group": "last-30-days", "lat": 41.610604697431306, "lon": 157.24826265013795, "alt_km": 391.99637825085665, "timestamp": "2025-12-24T16:52:40.179873+00:00", "meta": {"OBJECT_NAME": "STARLINK-36108", "OBJECT_ID": "2025-281W", "EPOCH": "2025-12-24T06:00:02.000160", "MEAN_MOTION": 15.58605436, "ECCENTRICITY": 0.00013101, "INCLINATION": 43.0001, "RA_OF_ASC_NODE": 52.3164, "ARG_OF_PERICENTER": 285.6081, "MEAN_ANOMALY": 153.0339, "EPHEMERIS_TYPE": 0, "CLASSIFICATION_TYPE": "U", "NORAD_CAT_ID": 66868, "ELEMENT_SET_NO": 999, "REV_AT_EPOCH": 307, "BSTAR": -0.029230967, "MEAN_MOTION_DOT": -0.02017382, "MEAN_MOTION_DDOT": 0}, "tle": {"line1": "1 66868U 25281W   25358.25002315 -.02017382  00000+0 -29231-1 0  9995", "line2": "2 66868  43.0001  52.3164 0001310 285.6081 153.0339 15.58605436  3077"}}, "geometry": {"type": "Point", "coordinates": [157.24826265013795, 41.610604697431306]}}]}